H1 CPF 01  gfz 2022 01 05 13  5052 terrasarx 
H2 0702601  6201 31698    2022 01 05 12 59 42 2022 01 10 00 00 42   120 1 1  0 0 0
H9
10 0 59585  76302.000000  0   -4276962.698   3971560.438   3650052.771
10 0 59585  76422.000000  0   -4456875.673   4403311.041   2855554.231
10 0 59585  76542.000000  0   -4551950.452   4760468.960   2010764.558
10 0 59585  76662.000000  0   -4561895.788   5035299.630   1130560.129
10 0 59585  76782.000000  0   -4488045.129   5221532.021    230445.499
10 0 59585  76902.000000  0   -4333308.218   5314499.894   -673726.860
10 0 59585  77022.000000  0   -4102089.825   5311252.415  -1566046.312
10 0 59585  77142.000000  0   -3800176.076   5210626.255  -2430833.844
10 0 59585  77262.000000  0   -3434595.081   5013283.770  -3252923.994
10 0 59585  77382.000000  0   -3013453.985   4721712.308  -4017935.470
10 0 59585  77502.000000  0   -2545757.855   4340186.966  -4712521.852
10 0 59585  77622.000000  0   -2041215.489   3874699.830  -5324598.996
10 0 59585  77742.000000  0   -1510037.620   3332858.834  -5843547.506
10 0 59585  77862.000000  0    -962730.407   2723756.046  -6260388.354
10 0 59585  77982.000000  0    -409888.651   2057808.877  -6567927.083
10 0 59585  78102.000000  0     138006.169   1346579.579  -6760866.126
10 0 59585  78222.000000  0     670779.553    602575.312  -6835886.888
10 0 59585  78342.000000  0    1178748.799   -160968.025  -6791701.464
10 0 59585  78462.000000  0    1652895.006   -930317.024  -6629071.371
10 0 59585  78582.000000  0    2085018.804  -1691481.333  -6350794.821
10 0 59585  78702.000000  0    2467879.934  -2430461.421  -5961664.094
10 0 59585  78822.000000  0    2795318.070  -3133500.888  -5468393.007
10 0 59585  78942.000000  0    3062354.399  -3787342.601  -4879512.778
10 0 59585  79062.000000  0    3265269.544  -4379480.024  -4205233.211
10 0 59585  79182.000000  0    3401656.545  -4898398.339  -3457276.064
10 0 59585  79302.000000  0    3470450.272  -5333804.759  -2648681.409
10 0 59585  79422.000000  0    3471929.962  -5676841.866  -1793585.007
10 0 59585  79542.000000  0    3407694.475  -5920275.470   -906972.061
10 0 59585  79662.000000  0    3280610.609  -6058654.582     -4411.527
10 0 59585  79782.000000  0    3094733.689  -6088436.350    898223.859
10 0 59585  79902.000000  0    2855204.401  -6008074.555   1785044.032
10 0 59585  80022.000000  0    2568123.437  -5818067.343   2640431.933
10 0 59585  80142.000000  0    2240405.852  -5520961.999   3449326.707
10 0 59585  80262.000000  0    1879620.973  -5121319.435   4197494.136
10 0 59585  80382.000000  0    1493821.619  -4625639.341   4871781.050
10 0 59585  80502.000000  0    1091367.525  -4042247.058   5460347.578
10 0 59585  80622.000000  0     680745.425  -3381145.045   5952874.826
10 0 59585  80742.000000  0     270390.545  -2653831.725   6340740.392
10 0 59585  80862.000000  0    -131485.161  -1873095.362   6617162.134
10 0 59585  80982.000000  0    -517055.332  -1052786.083   6777310.322
10 0 59585  81102.000000  0    -879030.191   -207568.699   6818388.159
10 0 59585  81222.000000  0   -1210793.331    647340.408   6739677.775
10 0 59585  81342.000000  0   -1506522.184   1496446.840   6542551.618
10 0 59585  81462.000000  0   -1761290.092   2324258.041   6230450.012
10 0 59585  81582.000000  0   -1971149.032   3115565.824   5808824.964
10 0 59585  81702.000000  0   -2133191.090   3855726.984   5285050.108
10 0 59585  81822.000000  0   -2245588.344   4530937.780   4668298.953
10 0 59585  81942.000000  0   -2307610.435   5128498.011   3969389.915
10 0 59585  82062.000000  0   -2319618.739   5637058.188   3200600.252
10 0 59585  82182.000000  0   -2283037.248   6046843.620   2375450.855
10 0 59585  82302.000000  0   -2200300.665   6349850.564   1508466.888
10 0 59585  82422.000000  0   -2074780.378   6540009.943    614917.552
10 0 59585  82542.000000  0   -1910690.310   6613313.827   -289459.492
10 0 59585  82662.000000  0   -1712975.353   6567901.762  -1188743.735
10 0 59585  82782.000000  0   -1487184.255   6404103.825  -2067123.664
10 0 59585  82902.000000  0   -1239329.899   6124434.394  -2909184.052
10 0 59585  83022.000000  0    -975742.829   5733543.510  -3700179.370
10 0 59585  83142.000000  0    -702921.388   5238129.204  -4426292.684
10 0 59585  83262.000000  0    -427381.913   4646810.378  -5074874.637
10 0 59585  83382.000000  0    -155512.023   3969965.934  -5634657.796
10 0 59585  83502.000000  0     106569.859   3219542.814  -6095944.634
10 0 59585  83622.000000  0     353145.165   2408836.929  -6450764.900
10 0 59585  83742.000000  0     579013.142   1552254.026  -6693001.177
10 0 59585  83862.000000  0     779595.301    665054.582  -6818484.612
10 0 59585  83982.000000  0     951024.020   -236914.776  -6825058.887
10 0 59585  84102.000000  0    1090214.220  -1137499.155  -6712612.807
10 0 59585  84222.000000  0    1194917.094  -2020517.333  -6483080.201
10 0 59585  84342.000000  0    1263755.887  -2870044.081  -6140410.690
10 0 59585  84462.000000  0    1296243.565  -3670692.533  -5690511.182
10 0 59585  84582.000000  0    1292780.170  -4407892.763  -5141153.934
10 0 59585  84702.000000  0    1254631.936  -5068157.902  -4501852.334
10 0 59585  84822.000000  0    1183891.434  -5639336.169  -3783708.049
10 0 59585  84942.000000  0    1083418.454  -6110843.832  -2999227.221
10 0 59585  85062.000000  0     956763.802  -6473872.248  -2162109.095
10 0 59585  85182.000000  0     808077.336  -6721565.140  -1287009.687
10 0 59585  85302.000000  0     642001.243  -6849160.087   -389283.580
10 0 59585  85422.000000  0     463551.549  -6854089.307    515290.271
10 0 59585  85542.000000  0     277990.939  -6736037.976   1410792.500
10 0 59585  85662.000000  0      90695.964  -6496958.056   2281452.354
10 0 59585  85782.000000  0     -92977.951  -6141035.649   3111935.625
10 0 59585  85902.000000  0    -267830.241  -5674611.059   3887623.250
10 0 59585  86022.000000  0    -428944.510  -5106056.957   4594872.114
10 0 59585  86142.000000  0    -571809.588  -4445619.023   5221257.257
10 0 59585  86262.000000  0    -692429.368  -3705221.448   5755789.359
10 0 59585  86382.000000  0    -787419.518  -2898241.721   6189105.352
10 0 59586    102.000000  0    -854088.664  -2039259.868   6513625.719
10 0 59586    222.000000  0    -890502.607  -1143791.294   6723679.422
10 0 59586    342.000000  0    -895531.146   -228004.892   6815598.421
10 0 59586    462.000000  0    -868876.776    691569.876   6787778.170
10 0 59586    582.000000  0    -811083.223   1598341.001   6640703.945
10 0 59586    702.000000  0    -723524.216   2475952.723   6376942.771
10 0 59586    822.000000  0    -608373.281   3308580.274   6001101.483
10 0 59586    942.000000  0    -468555.193   4081216.849   5519751.240
10 0 59586   1062.000000  0    -307679.444   4779947.380   4941318.073
10 0 59586   1182.000000  0    -129956.917   5392205.878   4275942.309
10 0 59586   1302.000000  0      59899.115   5907009.753   3535303.540
10 0 59586   1422.000000  0     256784.230   6315164.319   2732421.072
10 0 59586   1542.000000  0     455325.448   6609443.000   1881425.036
10 0 59586   1662.000000  0     650013.167   6784722.734    997300.644
10 0 59586   1782.000000  0     835337.057   6838078.538     95618.318
10 0 59586   1902.000000  0    1005923.880   6768834.821   -807748.629
10 0 59586   2022.000000  0    1156672.135   6578570.843  -1696912.188
10 0 59586   2142.000000  0    1282880.468   6271081.682  -2556256.504
10 0 59586   2262.000000  0    1380367.273   5852295.621  -3370718.278
10 0 59586   2382.000000  0    1445578.642   5330149.713  -4126054.395
10 0 59586   2502.000000  0    1475682.104   4714427.319  -4809091.088
10 0 59586   2622.000000  0    1468643.774   4016562.330  -5407949.199
10 0 59586   2742.000000  0    1423287.316   3249417.157  -5912242.780
10 0 59586   2862.000000  0    1339333.994   2427037.974  -6313249.801
10 0 59586   2982.000000  0    1217422.781   1564393.202  -6604050.708
10 0 59586   3102.000000  0    1059111.449    677102.110  -6779637.030
10 0 59586   3222.000000  0     866857.986   -218844.935  -6836989.288
10 0 59586   3342.000000  0     643982.744  -1107369.578  -6775122.554
10 0 59586   3462.000000  0     394611.900  -1972586.729  -6595099.869
10 0 59586   3582.000000  0     123603.899  -2799079.992  -6300016.373
10 0 59586   3702.000000  0    -163541.938  -3572172.049  -5894953.972
10 0 59586   3822.000000  0    -460792.412  -4278183.535  -5386901.833
10 0 59586   3942.000000  0    -761700.987  -4904676.032  -4784647.100
10 0 59586   4062.000000  0   -1059541.368  -5440676.816  -4098634.570
10 0 59586   4182.000000  0   -1347451.457  -5876879.902  -3340795.562
10 0 59586   4302.000000  0   -1618584.349  -6205818.415  -2524348.060
10 0 59586   4422.000000  0   -1866263.393  -6422004.773  -1663571.048
10 0 59586   4542.000000  0   -2084137.613  -6522034.752   -773555.198
10 0 59586   4662.000000  0   -2266333.447  -6504651.141    130065.449
10 0 59586   4782.000000  0   -2407599.202  -6370764.219   1031394.861
10 0 59586   4902.000000  0   -2503438.055  -6123428.428   1914563.111
10 0 59586   5022.000000  0   -2550226.039  -5767775.515   2764015.069
10 0 59586   5142.000000  0   -2545311.576  -5310905.639   3564792.763
10 0 59586   5262.000000  0   -2487094.029  -4761739.755   4302804.794
10 0 59586   5382.000000  0   -2375080.020  -4130838.013   4965077.398
10 0 59586   5502.000000  0   -2209916.853  -3430188.562   5539983.637
10 0 59586   5622.000000  0   -1993400.929  -2672970.349   6017445.378
10 0 59586   5742.000000  0   -1728461.346  -1873298.717   6389104.666
10 0 59586   5862.000000  0   -1419120.052  -1045958.306   6648464.793
10 0 59586   5982.000000  0   -1070429.804   -206125.853   6790997.652
10 0 59586   6102.000000  0    -688391.704    630908.450   6814216.250
10 0 59586   6222.000000  0    -279852.076   1450018.216   6717716.254
10 0 59586   6342.000000  0     147620.258   2236513.988   6503182.841
99
